{"fetched_at":"2026-03-29T16:36:15Z","count":15609,"tles":[{"name":"STARLINK-11105 [DTC]","line1":"1 59758U 24091F   26087.79655774  .00000029  00000+0  51015-5 0  9990","line2":"2 59758  53.1601 112.1377 0001557  96.7257 263.3939 15.69712689108512","category":"Starlink"}]}